[{"OBJECT_NAME":"STARLINK-32098","OBJECT_ID":"2024-086Y","EPOCH":"2026-03-08T23:53:53.965536","MEAN_MOTION":15.27571772,"ECCENTRICITY":0.00014023,"INCLINATION":43.0009,"RA_OF_ASC_NODE":64.0121,"ARG_OF_PERICENTER":255.1283,"MEAN_ANOMALY":104.9413,"EPHEMERIS_TYPE":0,"CLASSIFICATION_TYPE":"U","NORAD_CAT_ID":59704,"ELEMENT_SET_NO":999,"REV_AT_EPOCH":10400,"BSTAR":-9.76559e-6,"MEAN_MOTION_DOT":-5.31e-6,"MEAN_MOTION_DDOT":0},{"OBJECT_NAME":"FLOCK 4G-11","OBJECT_ID":"2025-009W","EPOCH":"2026-03-09T10:57:03.681504","MEAN_MOTION":15.27220677,"ECCENTRICITY":0.00016118,"INCLINATION":97.3964,"RA_OF_ASC_NODE":150.6183,"ARG_OF_PERICENTER":333.5407,"MEAN_ANOMALY":26.575,"EPHEMERIS_TYPE":0,"CLASSIFICATION_TYPE":"U","NORAD_CAT_ID":62629,"ELEMENT_SET_NO":999,"REV_AT_EPOCH":6368,"BSTAR":0.00047740378,"MEAN_MOTION_DOT":0.00012672,"MEAN_MOTION_DDOT":0}]
